STARLINK-4090           
1 53165U 22083AK  22286.25001157  .00057041  00000+0  35743-2 0  9996
2 53165  53.2193 346.1284 0001797  48.0429  71.6713 15.08829069 14271
STARLINK-4110           
1 53166U 22083AL  22285.91667824 -.00109116  00000+0 -69300-2 0  9997
2 53166  53.2182 347.6269 0001521  46.5020  21.6481 15.08908199 14228
STARLINK-3683           
1 53167U 22083AM  22286.25001157 -.00380124  00000+0 -69506-2 0  9995
2 53167  53.2178 333.8850 0001949  39.4517 324.3621 15.50159912 14433
STARLINK-4105           
1 53168U 22083AN  22285.91667824 -.00099057  00000+0 -62816-2 0  9996
2 53168  53.2183 347.6271 0001811  45.6425  42.5103 15.08901951 14227
STARLINK-4117           
1 53169U 22083AP  22285.91667824 -.01059897  00000+0 -19780-1 0  9997
2 53169  53.2176 335.4105 0001131  73.4839 227.7214 15.50978697 14389
STARLINK-4095           
1 53170U 22083AQ  22286.25001157  .00064102  00000+0  40134-2 0  9998
2 53170  53.2163 341.1359 0001788  50.1303 231.9287 15.08802900 14336
STARLINK-4052           
1 53171U 22083AR  22286.25001157  .00110202  00000+0  77965-3 0  9995
2 53171  53.2151 332.9933 0005015 311.7960 114.6542 15.73178455 14448
STARLINK-4299           
1 53172U 22083AS  22286.25001157 -.00040041  00000+0 -25097-2 0  9999
2 53172  53.2159 341.1348 0001728  44.9544 257.0955 15.08869360 14337
STARLINK-4300           
1 53173U 22083AT  22286.25001157  .00051547  00000+0  36935-3 0  9995
2 53173  53.2152 332.9993 0005476 309.3044 114.2340 15.73189783 14442
STARLINK-4205           
1 53174U 22083AU  22286.25001157  .00057580  00000+0  36072-2 0  9990
2 53174  53.2189 356.1286 0001699  49.2593  35.4670 15.08833866 14130
STARLINK-4292           
1 53175U 22083AV  22286.25001157  .00118936  00000+0  73762-2 0  9991
2 53175  53.2193 356.1289 0001872  42.0881  62.6342 15.08791898 14139
STARLINK-4294           
1 53176U 22083AW  22286.25001157 -.00384611  00000+0 -70362-2 0  9992
2 53176  53.2178 333.8974 0001413  70.1676 294.4852 15.50164644 14435
STARLINK-4298           
1 53177U 22083AX  22286.25001157  .00132277  00000+0  93311-3 0  9990
2 53177  53.2156 333.0023 0006788 299.0319 125.6552 15.73150146 14445
STARLINK-4280           
1 53178U 22083AY  22285.91667824  .00001386  00000+0  10519-3 0  9997
2 53178  53.2168 347.6293 0002001  30.0068  98.1795 15.08835598  1300
STARLINK-4276           
1 53179U 22083AZ  22285.91667824  .00000397  00000+0  72992-5 0  9994
2 53179  53.2175 334.6292 0006009 300.9261  39.0884 15.73203616  1305
STARLINK-4258           
1 53180U 22083BA  22285.91667824  .00016165  00000+0  11932-3 0  9991
2 53180  53.2170 334.6426 0006739 299.8703  35.3800 15.73192060  1305
STARLINK-4273           
1 53181U 22083BB  22286.25001157  .00107784  00000+0  76286-3 0  9992
2 53181  53.2154 332.9983 0005522 308.5452 117.3280 15.73175128 14443
STARLINK-4278           
1 53182U 22083BC  22285.91667824 -.00112016  00000+0 -80102-3 0  9992
2 53182  53.2171 334.6394 0004990 310.9665  25.4342 15.73275087  1303
STARLINK-4268           
1 53183U 22083BD  22286.25001157  .00083849  00000+0  59566-3 0  9991
2 53183  53.2153 332.9946 0006723 297.1093 129.9694 15.73183633 14449
STARLINK-4257           
1 53184U 22083BE  22286.25001157  .00077479  00000+0  55170-3 0  9991
2 53184  53.2156 332.9950 0005374 308.6621 119.6399 15.73171095 14441
STARLINK-4391           
1 53189U 22084A   22285.78118786  .00001707  00000+0  13747-3 0  9996
2 53189  97.6565 345.3944 0001929  71.9456 288.1978 15.01262382 13367
STARLINK-4332           
1 53190U 22084B   22286.14431968  .00000839  00000+0  69943-4 0  9994
2 53190  97.6544 345.7354 0002037 142.9564 217.1801 15.01258433 13128
STARLINK-4369           
1 53191U 22084C   22286.17555209  .00004116  00000+0  32486-3 0  9996
2 53191  97.6554 345.7748 0001698  76.6254 283.5159 15.01260211 13128
STARLINK-4375           
1 53192U 22084D   22285.57382382  .00001171  00000+0  95738-4 0  9998
2 53192  97.6561 345.1842 0001860  90.2596 269.8842 15.01259478 13329
STARLINK-4351           
1 53193U 22084E   22286.17924992  .00001850  00000+0  14857-3 0  9991
2 53193  97.6570 345.7886 0001856  81.4364 278.7071 15.01262198 13139
STARLINK-4382           
1 53194U 22084F   22285.77748648  .00000816  00000+0  68160-4 0  9997
2 53194  97.6566 345.3839 0001891  71.5272 288.6158 15.01257751 12680
STARLINK-4404           
1 53195U 22084G   22286.18125733  .00002592  00000+0  21069-3 0  9997
2 53195  97.6551 345.9088 0002079 107.5538 252.5913 15.00450615 13134
STARLINK-4407           
1 53196U 22084H   22286.17394563  .00002862  00000+0  22739-3 0  9991
2 53196  97.6561 345.7752 0003384 109.6415 250.5174 15.01250219 13124
STARLINK-4403           
1 53197U 22084J   22286.16813854 -.00000641  00000+0 -45287-4 0  9999
2 53197  97.6544 345.7636 0001924  97.5696 262.5747 15.01266090 13124
STARLINK-4385           
1 53198U 22084K   22285.83858494  .00014655  00000+0  11431-2 0  9992
2 53198  97.6534 345.4403 0001839  96.7291 263.4142 15.01262653 13355
STARLINK-4395           
1 53199U 22084L   22285.76638765 -.00001469  00000+0 -10978-3 0  9999
2 53199  97.6535 345.3662 0002020 104.8660 255.2788 15.01265140 12681
STARLINK-4417           
1 53200U 22084M   22286.16999617  .00004241  00000+0  33454-3 0  9996
2 53200  97.6527 345.7631 0002304  94.6611 265.4876 15.01266136 13129
STARLINK-4405           
1 53201U 22084N   22285.76266941  .00000785  00000+0  65661-4 0  9994
2 53201  97.6537 345.3596 0001633  98.0198 262.1212 15.01262669 12684
STARLINK-4411           
1 53202U 22084P   22285.79938621  .00001850  00000+0  15177-3 0  9999
2 53202  97.6561 345.7862 0001499  74.6536 285.4854 15.00449259 12713
STARLINK-4409           
1 53203U 22084Q   22285.75897457  .00000752  00000+0  63115-4 0  9993
2 53203  97.6549 345.3559 0002273 130.8774 229.2647 15.01253418 12682
STARLINK-4410           
1 53204U 22084R   22285.63121728  .00002510  00000+0  19995-3 0  9992
2 53204  97.6554 345.2305 0001783 100.9615 259.1810 15.01264606 13321
STARLINK-4397           
1 53205U 22084S   22286.15518500  .00000757  00000+0  63547-4 0  9993
2 53205  97.6550 345.7471 0002301 126.1079 234.0358 15.01259603 13126
STARLINK-4408           
1 53206U 22084T   22285.62591470 -.00001114  00000+0 -82171-4 0  9996
2 53206  97.6532 345.2235 0002315 116.5436 243.6025 15.01245270 12665
STARLINK-4413           
1 53207U 22084U   22285.62011456 -.00000686  00000+0 -48788-4 0  9997
2 53207  97.6545 345.2187 0002084 118.5638 241.5797 15.01254860 12663
STARLINK-4425           
1 53208U 22084V   22286.16074610  .00007624  00000+0  59816-3 0  9999
2 53208  97.6541 345.7523 0002739 115.3046 244.8462 15.01217489 13127
STARLINK-4423           
1 53209U 22084W   22286.15172219  .00003113  00000+0  24680-3 0  9993
2 53209  97.6555 345.7426 0002176 119.9530 240.1910 15.01270305 13121
STARLINK-4427           
1 53210U 22084X   22285.62381203  .00001000  00000+0  82441-4 0  9994
2 53210  97.6543 345.2222 0001342  95.1149 265.0229 15.01259541 13201
STARLINK-4419           
1 53211U 22084Y   22286.14777674 -.00000028  00000+0  24132-5 0  9998
2 53211  97.6545 345.7377 0002268 132.2404 227.9013 15.01265081 13120
STARLINK-4416           
1 53212U 22084Z   22285.75156366  .00004919  00000+0  38727-3 0  9999
2 53212  97.6549 345.3497 0001956 124.5552 235.5857 15.01260980 12689
STARLINK-4414           
1 53213U 22084AA  22285.14243580 -.00000797  00000+0 -57448-4 0  9992
2 53213  97.6553 344.7451 0002100 157.1795 202.9523 15.01250698 13113
STARLINK-4353           
1 53214U 22084AB  22286.14962985  .00002874  00000+0  22824-3 0  9996
2 53214  97.6553 345.7416 0001816 129.6996 230.4388 15.01256571 13128
STARLINK-4335           
1 53215U 22084AC  22286.14037649  .00001212  00000+0  98967-4 0  9994
2 53215  97.6566 345.7313 0002187 124.7064 235.4366 15.01247689 13124
STARLINK-4376           
1 53216U 22084AD  22286.14593079  .00003014  00000+0  23915-3 0  9991
2 53216  97.6547 345.7359 0001936 124.5514 235.5893 15.01254436 13127
STARLINK-4379           
1 53217U 22084AE  22285.40374473  .00009226  00000+0  72216-3 0  9994
2 53217  97.6541 345.0092 0001643  94.0378 266.1034 15.01250132 12634
STARLINK-4384           
1 53218U 22084AF  22286.14408391  .00004364  00000+0  34415-3 0  9991
2 53218  97.6561 345.7363 0001837 131.4204 228.7178 15.01256014 12755
STARLINK-4373           
1 53219U 22084AG  22286.13296757  .00001234  00000+0  10068-3 0  9993
2 53219  97.6549 345.7253 0002141 112.3862 247.7589 15.01263133 12754
STARLINK-4363           
1 53220U 22084AH  22286.13851469  .00000010  00000+0  53731-5 0  9999
2 53220  97.6519 345.7287 0001775 123.7698 236.3696 15.01265758 12753
STARLINK-4377           
1 53221U 22084AJ  22286.13111978  .00005978  00000+0  46965-3 0  9991
2 53221  97.6538 345.7266 0001665  91.0325 269.1090 15.01255459 12742
STARLINK-4381           
1 53222U 22084AK  22286.13666595  .00000739  00000+0  62147-4 0  9993
2 53222  97.6547 345.7281 0001799 135.5549 224.5820 15.01259177 13120
STARLINK-4354           
1 53223U 22084AL  22286.12925913  .00002030  00000+0  16262-3 0  9997
2 53223  97.6547 345.7248 0002493  99.9640 260.1866 15.01256029 12747
STARLINK-4356           
1 53224U 22084AM  22286.13482322  .00001678  00000+0  13524-3 0  9996
2 53224  97.6572 345.7300 0002690 123.0752 237.0731 15.01253109 12758
STARLINK-4358           
1 53225U 22084AN  22285.79229952  .00003342  00000+0  26463-3 0  9992
2 53225  97.6545 345.3947 0001656  80.3073 279.8338 15.01259669 12691
STARLINK-4359           
1 53226U 22084AP  22286.12950790  .00001242  00000+0  10129-3 0  9991
2 53226  97.6557 345.7260 0002056 102.8672 257.2782 15.01251827 12755
STARLINK-4366           
1 53227U 22084AQ  22286.12210958  .00006673  00000+0  52367-3 0  9990
2 53227  97.6575 345.7289 0002532  95.8446 264.3067 15.01258662 12744
STARLINK-4365           
1 53228U 22084AR  22286.12741409  .00000943  00000+0  78000-4 0  9998
2 53228  97.6551 345.7256 0001911  89.9315 270.2128 15.01258807 12747
